start=new Date('2023-04-23T00:00:00.000Z').valueOf();
sats=[{"COUNTRY_CODE":"US","MEAN_MOTION_DOT":"0.00031577","PERIOD":"95.591","FILE":"3892285","MEAN_MOTION":"15.06422409","TLE_LINE2":"2 46371  53.0555  38.8991 0001047  80.3993 279.7114 15.06422409146047","GP_ID":"230591195","REF_FRAME":"TEME","REV_AT_EPOCH":"14604","EPHEMERIS_TYPE":"0","ELEMENT_SET_NO":"999","TLE_LINE1":"1 46371U 20062AY  23112.76277105  .00031577  00000-0  21280-2 0  9993","SEMIMAJOR_AXIS":"6925.280","OBJECT_NAME":"STARLINK-1688","LAUNCH_DATE":"2020-09-03","CENTER_NAME":"EARTH","OBJECT_TYPE":"PAYLOAD","APOAPSIS":"547.870","TIME_SYSTEM":"UTC","MEAN_MOTION_DDOT":"0.0000000000000","RCS_SIZE":"LARGE","OBJECT_ID":"2020-062AY","PERIAPSIS":"546.420","EPOCH":"2023-04-22T18:18:23.418720","RA_OF_ASC_NODE":"38.8991","CLASSIFICATION_TYPE":"U","DECAY_DATE":null,"INCLINATION":"53.0555","NORAD_CAT_ID":"46371","ECCENTRICITY":"0.00010470","MEAN_ANOMALY":"279.7114","MEAN_ELEMENT_THEORY":"SGP4","BSTAR":"0.00212800000000","SITE":"AFETR","ARG_OF_PERICENTER":"80.3993"},{"ELEMENT_SET_NO":"999","OBJECT_NAME":"STARLINK-1689","SEMIMAJOR_AXIS":"6925.385","TLE_LINE1":"1 46372U 20062AZ  23112.24120745  .00004123  00000-0  29562-3 0  9993","LAUNCH_DATE":"2020-09-03","CENTER_NAME":"EARTH","OBJECT_TYPE":"PAYLOAD","FILE":"3892071","COUNTRY_CODE":"US","PERIOD":"95.593","MEAN_MOTION_DOT":"0.00004123","MEAN_MOTION":"15.06388247","REF_FRAME":"TEME","TLE_LINE2":"2 46372  53.0539  61.2411 0000993  80.5720 279.5381 15.06388247145680","GP_ID":"230559531","EPHEMERIS_TYPE":"0","REV_AT_EPOCH":"14568","CLASSIFICATION_TYPE":"U","ECCENTRICITY":"0.00009930","NORAD_CAT_ID":"46372","DECAY_DATE":null,"INCLINATION":"53.0539","SITE":"AFETR","BSTAR":"0.00029562000000","MEAN_ANOMALY":"279.5381","MEAN_ELEMENT_THEORY":"SGP4","ARG_OF_PERICENTER":"80.5720","TIME_SYSTEM":"UTC","APOAPSIS":"547.937","OBJECT_ID":"2020-062AZ","MEAN_MOTION_DDOT":"0.0000000000000","RCS_SIZE":"LARGE","PERIAPSIS":"546.562","RA_OF_ASC_NODE":"61.2411","EPOCH":"2023-04-22T05:47:20.323680"},{"OBJECT_TYPE":"PAYLOAD","CENTER_NAME":"EARTH","LAUNCH_DATE":"2020-09-03","OBJECT_NAME":"STARLINK-1711","TLE_LINE1":"1 46374U 20062BB  23112.91852786  .00030730  00000-0  20712-2 0  9996","SEMIMAJOR_AXIS":"6925.252","ELEMENT_SET_NO":"999","REV_AT_EPOCH":"14676","EPHEMERIS_TYPE":"0","REF_FRAME":"TEME","TLE_LINE2":"2 46374  53.0540 348.2062 0000871  67.4052 292.7029 15.06431422146761","GP_ID":"230592195","MEAN_MOTION":"15.06431422","FILE":"3892285","MEAN_MOTION_DOT":"0.00030730","PERIOD":"95.590","COUNTRY_CODE":"US","ARG_OF_PERICENTER":"67.4052","SITE":"AFETR","BSTAR":"0.00207120000000","MEAN_ELEMENT_THEORY":"SGP4","MEAN_ANOMALY":"292.7029","ECCENTRICITY":"0.00008710","DECAY_DATE":null,"NORAD_CAT_ID":"46374","INCLINATION":"53.0540","CLASSIFICATION_TYPE":"U","RA_OF_ASC_NODE":"348.2062","EPOCH":"2023-04-22T22:02:40.807104","PERIAPSIS":"546.514","OBJECT_ID":"2020-062BB","RCS_SIZE":"LARGE","MEAN_MOTION_DDOT":"0.0000000000000","APOAPSIS":"547.720","TIME_SYSTEM":"UTC"},{"MEAN_ELEMENT_THEORY":"SGP4","MEAN_ANOMALY":"245.2977","BSTAR":"0.00184110000000","SITE":"AFETR","ARG_OF_PERICENTER":"114.8175","CLASSIFICATION_TYPE":"U","INCLINATION":"53.0553","DECAY_DATE":null,"NORAD_CAT_ID":"46375","ECCENTRICITY":"0.00015690","RCS_SIZE":"LARGE","MEAN_MOTION_DDOT":"0.0000000000000","OBJECT_ID":"2020-062BC","EPOCH":"2023-04-22T16:01:04.006272","RA_OF_ASC_NODE":"14.3291","PERIAPSIS":"546.032","TIME_SYSTEM":"UTC","APOAPSIS":"548.205","CENTER_NAME":"EARTH","LAUNCH_DATE":"2020-09-03","OBJECT_TYPE":"PAYLOAD","ELEMENT_SET_NO":"999","SEMIMAJOR_AXIS":"6925.253","TLE_LINE1":"1 46375U 20062BC  23112.66740748  .00027271  00000-0  18411-2 0  9992","OBJECT_NAME":"STARLINK-1724","TLE_LINE2":"2 46375  53.0553  14.3291 0001569 114.8175 245.2977 15.06431035146371","GP_ID":"230591946","REF_FRAME":"TEME","REV_AT_EPOCH":"14637","EPHEMERIS_TYPE":"0","MEAN_MOTION_DOT":"0.00027271","PERIOD":"95.590","COUNTRY_CODE":"US","FILE":"3892285","MEAN_MOTION":"15.06431035"},{"TIME_SYSTEM":"UTC","APOAPSIS":"547.742","RCS_SIZE":"LARGE","MEAN_MOTION_DDOT":"0.0000000000000","OBJECT_ID":"2020-062BD","RA_OF_ASC_NODE":"13.9640","EPOCH":"2023-04-22T17:57:50.997888","PERIAPSIS":"546.678","CLASSIFICATION_TYPE":"U","INCLINATION":"53.0542","DECAY_DATE":null,"NORAD_CAT_ID":"46376","ECCENTRICITY":"0.00007680","MEAN_ELEMENT_THEORY":"SGP4","MEAN_ANOMALY":"275.0472","BSTAR":"0.00100980000000","SITE":"AFETR","ARG_OF_PERICENTER":"85.0604","PERIOD":"95.592","MEAN_MOTION_DOT":"0.00014792","COUNTRY_CODE":"US","FILE":"3892285","MEAN_MOTION":"15.06401267","TLE_LINE2":"2 46376  53.0542  13.9640 0000768  85.0604 275.0472 15.06401267146385","GP_ID":"230590696","REF_FRAME":"TEME","REV_AT_EPOCH":"14638","EPHEMERIS_TYPE":"0","ELEMENT_SET_NO":"999","TLE_LINE1":"1 46376U 20062BD  23112.74850692  .00014792  00000-0  10098-2 0  9999","SEMIMAJOR_AXIS":"6925.345","OBJECT_NAME":"STARLINK-1742","CENTER_NAME":"EARTH","LAUNCH_DATE":"2020-09-03","OBJECT_TYPE":"PAYLOAD"},{"CENTER_NAME":"EARTH","LAUNCH_DATE":"2020-09-03","OBJECT_TYPE":"PAYLOAD","ELEMENT_SET_NO":"999","OBJECT_NAME":"STARLINK-1758","SEMIMAJOR_AXIS":"6925.408","TLE_LINE1":"1 46380U 20062BH  23112.18408074  .00028368  00000-0  19167-2 0  9995","REF_FRAME":"TEME","TLE_LINE2":"2 46380  53.0545  41.4963 0001082  69.7645 290.3460 15.06380540145950","GP_ID":"230559032","REV_AT_EPOCH":"14595","EPHEMERIS_TYPE":"0","FILE":"3892071","COUNTRY_CODE":"US","PERIOD":"95.593","MEAN_MOTION_DOT":"0.00028368","MEAN_MOTION":"15.06380540","BSTAR":"0.00191670000000","SITE":"AFETR","MEAN_ANOMALY":"290.3460","MEAN_ELEMENT_THEORY":"SGP4","ARG_OF_PERICENTER":"69.7645","CLASSIFICATION_TYPE":"U","ECCENTRICITY":"0.00010820","DECAY_DATE":null,"INCLINATION":"53.0545","NORAD_CAT_ID":"46380","OBJECT_ID":"2020-062BH","MEAN_MOTION_DDOT":"0.0000000000000","RCS_SIZE":"LARGE","PERIAPSIS":"546.524","EPOCH":"2023-04-22T04:25:04.575936","RA_OF_ASC_NODE":"41.4963","APOAPSIS":"548.023","TIME_SYSTEM":"UTC"},{"MEAN_MOTION_DDOT":"0.0000000000000","RCS_SIZE":"LARGE","OBJECT_ID":"2020-062BK","PERIAPSIS":"546.778","RA_OF_ASC_NODE":"13.8995","EPOCH":"2023-04-22T18:19:04.361952","APOAPSIS":"547.682","TIME_SYSTEM":"UTC","MEAN_ANOMALY":"251.6760","MEAN_ELEMENT_THEORY":"SGP4","BSTAR":"0.00137060000000","SITE":"AFETR","ARG_OF_PERICENTER":"108.4300","CLASSIFICATION_TYPE":"U","NORAD_CAT_ID":"46382","DECAY_DATE":null,"INCLINATION":"53.0551","ECCENTRICITY":"0.00006530","TLE_LINE2":"2 46382  53.0551  13.8995 0000653 108.4300 251.6760 15.06394601146394","GP_ID":"230591696","REF_FRAME":"TEME","REV_AT_EPOCH":"14639","EPHEMERIS_TYPE":"0","COUNTRY_CODE":"US","MEAN_MOTION_DOT":"0.00020189","PERIOD":"95.592","FILE":"3892285","MEAN_MOTION":"15.06394601","LAUNCH_DATE":"2020-09-03","CENTER_NAME":"EARTH","OBJECT_TYPE":"PAYLOAD","ELEMENT_SET_NO":"999","SEMIMAJOR_AXIS":"6925.365","TLE_LINE1":"1 46382U 20062BK  23112.76324493  .00020189  00000-0  13706-2 0  9999","OBJECT_NAME":"STARLINK-1769"},{"MEAN_MOTION":"15.06379709","MEAN_MOTION_DOT":"0.00003647","PERIOD":"95.593","COUNTRY_CODE":"US","FILE":"3892071","REV_AT_EPOCH":"14567","EPHEMERIS_TYPE":"0","TLE_LINE2":"2 46383  53.0549  61.3379 0000971  95.6915 264.4185 15.06379709145673","GP_ID":"230560032","REF_FRAME":"TEME","TLE_LINE1":"1 46383U 20062BL  23112.21908877  .00003647  00000-0  26374-3 0  9990","SEMIMAJOR_AXIS":"6925.411","OBJECT_NAME":"STARLINK-1770","ELEMENT_SET_NO":"999","OBJECT_TYPE":"PAYLOAD","CENTER_NAME":"EARTH","LAUNCH_DATE":"2020-09-03","TIME_SYSTEM":"UTC","APOAPSIS":"547.948","RA_OF_ASC_NODE":"61.3379","EPOCH":"2023-04-22T05:15:29.269728","PERIAPSIS":"546.603","RCS_SIZE":"LARGE","MEAN_MOTION_DDOT":"0.0000000000000","OBJECT_ID":"2020-062BL","DECAY_DATE":null,"NORAD_CAT_ID":"46383","INCLINATION":"53.0549","ECCENTRICITY":"0.00009710","CLASSIFICATION_TYPE":"U","ARG_OF_PERICENTER":"95.6915","MEAN_ELEMENT_THEORY":"SGP4","MEAN_ANOMALY":"264.4185","BSTAR":"0.00026374000000","SITE":"AFETR"},{"PERIAPSIS":"546.645","RA_OF_ASC_NODE":"61.6244","EPOCH":"2023-04-22T03:45:15.218496","MEAN_MOTION_DDOT":"0.0000000000000","RCS_SIZE":"LARGE","OBJECT_ID":"2020-062BM","TIME_SYSTEM":"UTC","APOAPSIS":"547.784","ARG_OF_PERICENTER":"107.7482","MEAN_ANOMALY":"252.3597","MEAN_ELEMENT_THEORY":"SGP4","BSTAR":"0.00003598100000","SITE":"AFETR","DECAY_DATE":null,"INCLINATION":"53.0568","NORAD_CAT_ID":"46384","ECCENTRICITY":"0.00008220","CLASSIFICATION_TYPE":"U","REV_AT_EPOCH":"14584","EPHEMERIS_TYPE":"0","GP_ID":"230533497","TLE_LINE2":"2 46384  53.0568  61.6244 0000822 107.7482 252.3597 15.06399774145844","REF_FRAME":"TEME","MEAN_MOTION":"15.06399774","COUNTRY_CODE":"US","PERIOD":"95.592","MEAN_MOTION_DOT":"0.00000255","FILE":"3891763","OBJECT_TYPE":"PAYLOAD","CENTER_NAME":"EARTH","LAUNCH_DATE":"2020-09-03","SEMIMAJOR_AXIS":"6925.349","TLE_LINE1":"1 46384U 20062BM  23112.15642614  .00000255  00000-0  35981-4 0  9995","OBJECT_NAME":"STARLINK-1771","ELEMENT_SET_NO":"999"},{"MEAN_MOTION":"15.06419193","MEAN_MOTION_DOT":"0.00014581","PERIOD":"95.591","COUNTRY_CODE":"US","FILE":"3892285","REV_AT_EPOCH":"14093","EPHEMERIS_TYPE":"0","TLE_LINE2":"2 46532  53.0534 219.5349 0001329  91.5507 268.5634 15.06419193140937","GP_ID":"230592459","REF_FRAME":"TEME","SEMIMAJOR_AXIS":"6925.290","TLE_LINE1":"1 46532U 20070A   23112.62089039  .00014581  00000-0  99521-3 0  9993","OBJECT_NAME":"STARLINK-1644","ELEMENT_SET_NO":"999","OBJECT_TYPE":"PAYLOAD","LAUNCH_DATE":"2020-10-06","CENTER_NAME":"EARTH","TIME_SYSTEM":"UTC","APOAPSIS":"548.075","EPOCH":"2023-04-22T14:54:04.929696","RA_OF_ASC_NODE":"219.5349","PERIAPSIS":"546.234","RCS_SIZE":"LARGE","MEAN_MOTION_DDOT":"0.0000000000000","OBJECT_ID":"2020-070A","INCLINATION":"53.0534","DECAY_DATE":null,"NORAD_CAT_ID":"46532","ECCENTRICITY":"0.00013290","CLASSIFICATION_TYPE":"U","ARG_OF_PERICENTER":"91.5507","MEAN_ELEMENT_THEORY":"SGP4","MEAN_ANOMALY":"268.5634","BSTAR":"0.00099521000000","SITE":"AFETR"}];
